SL-14 R/B               
1 16792U 86046B   25344.96318745  .00000804  00000+0  90014-4 0  9999
2 16792  82.4810 163.9920 0023644 157.9697 202.2541 14.85481507113232
SL-14 R/B               
1 16882U 86055B   25345.10870416  .00000681  00000+0  75931-4 0  9998
2 16882  82.5206 209.9054 0017458 265.2969 222.8383 14.85528340106211
AJISAI (EGS)            
1 16908U 86061A   25345.21103449 -.00000093  00000+0  31271-4 0  9998
2 16908  50.0113   5.4179 0011290  62.0696 339.5925 12.44514251456981
COSMOS 1812             
1 17295U 87003A   25345.14236977  .00129015  00000+0  85621-3 0  9992
2 17295  82.4869 293.7452 0007335  89.3842 270.8263 15.75048777130404
SL-14 R/B               
1 17567U 87024B   25344.82675202  .00000770  00000+0  85063-4 0  9996
2 17567  82.5276 176.2516 0017910 190.6315 169.4526 14.86020671 74930
COSMOS 1833             
1 17589U 87027A   25345.16037896  .00000137  00000+0  98994-4 0  9996
2 17589  70.9136 152.0975 0022465 333.9415  26.0573 14.13020835997807
SL-16 R/B               
1 17590U 87027B   25344.75548575 -.00000052  00000+0 -18020-5 0  9994
2 17590  71.0027 103.8990 0007457 261.6142  98.4136 14.17152135  2740
SL-14 R/B               
1 17912U 87038B   25345.18028831  .00000669  00000+0  74895-4 0  9993
2 17912  82.5018  20.1699 0020892  96.8690 263.4904 14.85259036 66094
COSMOS 1844             
1 17973U 87041A   25345.07695441 -.00000096  00000+0 -24963-4 0  9996
2 17973  70.8979 221.0787 0030123 159.7887 200.4435 14.14526081991054
SL-14 R/B               
1 18153U 87055B   25344.49885443  .00000827  00000+0  92719-4 0  9994
2 18153  82.5002  73.1002 0019521 311.2065  48.7467 14.85517771 56694
COSMOS 1867             
1 18187U 87060A   25344.99603051 -.00000003  00000+0  36560-4 0  9994
2 18187  65.0093 195.0860 0013627 270.9409  89.0114 14.31485663  7246
SL-14 R/B               
1 18749U 88001B   25345.16191990  .00000811  00000+0  91141-4 0  9990
2 18749  82.5132 278.6312 0018332 166.1830 193.9892 14.85421172 28885
