CCSDS_OMM_VERS = 2.0
CREATION_DATE  = 
ORIGINATOR     = 

OBJECT_NAME    = SL-14 R/B
OBJECT_ID      = 1986-046B
CENTER_NAME    = EARTH
REF_FRAME      = TEME
TIME_SYSTEM    = UTC
MEAN_ELEMENT_THEORY = SGP/SGP4

EPOCH          = 2025-12-10T23:06:59.395680
MEAN_MOTION    = 14.85481507
ECCENTRICITY   = .0023644
INCLINATION    = 82.4810
RA_OF_ASC_NODE = 163.9920
ARG_OF_PERICENTER = 157.9697
MEAN_ANOMALY   = 202.2541

EPHEMERIS_TYPE = 0
CLASSIFICATION_TYPE = U
NORAD_CAT_ID   = 16792
ELEMENT_SET_NO = 999
REV_AT_EPOCH   = 11323
BSTAR          = .90014E-4
MEAN_MOTION_DOT = .804E-5
MEAN_MOTION_DDOT = 0

CCSDS_OMM_VERS = 2.0
CREATION_DATE  = 
ORIGINATOR     = 

OBJECT_NAME    = SL-14 R/B
OBJECT_ID      = 1986-055B
CENTER_NAME    = EARTH
REF_FRAME      = TEME
TIME_SYSTEM    = UTC
MEAN_ELEMENT_THEORY = SGP/SGP4

EPOCH          = 2025-12-11T02:36:32.039424
MEAN_MOTION    = 14.85528340
ECCENTRICITY   = .0017458
INCLINATION    = 82.5206
RA_OF_ASC_NODE = 209.9054
ARG_OF_PERICENTER = 265.2969
MEAN_ANOMALY   = 222.8383

EPHEMERIS_TYPE = 0
CLASSIFICATION_TYPE = U
NORAD_CAT_ID   = 16882
ELEMENT_SET_NO = 999
REV_AT_EPOCH   = 10621
BSTAR          = .75931E-4
MEAN_MOTION_DOT = .681E-5
MEAN_MOTION_DDOT = 0

CCSDS_OMM_VERS = 2.0
CREATION_DATE  = 
ORIGINATOR     = 

OBJECT_NAME    = AJISAI (EGS)
OBJECT_ID      = 1986-061A
CENTER_NAME    = EARTH
REF_FRAME      = TEME
TIME_SYSTEM    = UTC
MEAN_ELEMENT_THEORY = SGP/SGP4

EPOCH          = 2025-12-11T05:03:53.379936
MEAN_MOTION    = 12.44514251
ECCENTRICITY   = .001129
INCLINATION    = 50.0113
RA_OF_ASC_NODE = 5.4179
ARG_OF_PERICENTER = 62.0696
MEAN_ANOMALY   = 339.5925

EPHEMERIS_TYPE = 0
CLASSIFICATION_TYPE = U
NORAD_CAT_ID   = 16908
ELEMENT_SET_NO = 999
REV_AT_EPOCH   = 45698
BSTAR          = .31271E-4
MEAN_MOTION_DOT = -.93E-6
MEAN_MOTION_DDOT = 0

CCSDS_OMM_VERS = 2.0
CREATION_DATE  = 
ORIGINATOR     = 

OBJECT_NAME    = COSMOS 1812
OBJECT_ID      = 1987-003A
CENTER_NAME    = EARTH
REF_FRAME      = TEME
TIME_SYSTEM    = UTC
MEAN_ELEMENT_THEORY = SGP/SGP4

EPOCH          = 2025-12-11T03:25:00.748128
MEAN_MOTION    = 15.75048777
ECCENTRICITY   = .0007335
INCLINATION    = 82.4869
RA_OF_ASC_NODE = 293.7452
ARG_OF_PERICENTER = 89.3842
MEAN_ANOMALY   = 270.8263

EPHEMERIS_TYPE = 0
CLASSIFICATION_TYPE = U
NORAD_CAT_ID   = 17295
ELEMENT_SET_NO = 999
REV_AT_EPOCH   = 13040
BSTAR          = .85621E-3
MEAN_MOTION_DOT = .129015E-2
MEAN_MOTION_DDOT = 0

CCSDS_OMM_VERS = 2.0
CREATION_DATE  = 
ORIGINATOR     = 

OBJECT_NAME    = SL-14 R/B
OBJECT_ID      = 1987-024B
CENTER_NAME    = EARTH
REF_FRAME      = TEME
TIME_SYSTEM    = UTC
MEAN_ELEMENT_THEORY = SGP/SGP4

EPOCH          = 2025-12-10T19:50:31.374528
MEAN_MOTION    = 14.86020671
ECCENTRICITY   = .00179105
INCLINATION    = 82.5276
RA_OF_ASC_NODE = 176.2516
ARG_OF_PERICENTER = 190.6315
MEAN_ANOMALY   = 169.4526

EPHEMERIS_TYPE = 0
CLASSIFICATION_TYPE = U
NORAD_CAT_ID   = 17567
ELEMENT_SET_NO = 999
REV_AT_EPOCH   = 7493
BSTAR          = .85062703E-4
MEAN_MOTION_DOT = .77E-5
MEAN_MOTION_DDOT = 0

CCSDS_OMM_VERS = 2.0
CREATION_DATE  = 
ORIGINATOR     = 

OBJECT_NAME    = COSMOS 1833
OBJECT_ID      = 1987-027A
CENTER_NAME    = EARTH
REF_FRAME      = TEME
TIME_SYSTEM    = UTC
MEAN_ELEMENT_THEORY = SGP/SGP4

EPOCH          = 2025-12-11T03:50:56.742144
MEAN_MOTION    = 14.13020835
ECCENTRICITY   = .0022465
INCLINATION    = 70.9136
RA_OF_ASC_NODE = 152.0975
ARG_OF_PERICENTER = 333.9415
MEAN_ANOMALY   = 26.0573

EPHEMERIS_TYPE = 0
CLASSIFICATION_TYPE = U
NORAD_CAT_ID   = 17589
ELEMENT_SET_NO = 999
REV_AT_EPOCH   = 99780
BSTAR          = .98994E-4
MEAN_MOTION_DOT = .137E-5
MEAN_MOTION_DDOT = 0

CCSDS_OMM_VERS = 2.0
CREATION_DATE  = 
ORIGINATOR     = 

OBJECT_NAME    = SL-16 R/B
OBJECT_ID      = 1987-027B
CENTER_NAME    = EARTH
REF_FRAME      = TEME
TIME_SYSTEM    = UTC
MEAN_ELEMENT_THEORY = SGP/SGP4

EPOCH          = 2025-12-10T18:07:53.968800
MEAN_MOTION    = 14.17152135
ECCENTRICITY   = .0007457
INCLINATION    = 71.0027
RA_OF_ASC_NODE = 103.8990
ARG_OF_PERICENTER = 261.6142
MEAN_ANOMALY   = 98.4136

EPHEMERIS_TYPE = 0
CLASSIFICATION_TYPE = U
NORAD_CAT_ID   = 17590
ELEMENT_SET_NO = 999
REV_AT_EPOCH   = 274
BSTAR          = -.1801972E-5
MEAN_MOTION_DOT = -.52E-6
MEAN_MOTION_DDOT = 0

CCSDS_OMM_VERS = 2.0
CREATION_DATE  = 
ORIGINATOR     = 

OBJECT_NAME    = SL-14 R/B
OBJECT_ID      = 1987-038B
CENTER_NAME    = EARTH
REF_FRAME      = TEME
TIME_SYSTEM    = UTC
MEAN_ELEMENT_THEORY = SGP/SGP4

EPOCH          = 2025-12-11T04:19:36.909984
MEAN_MOTION    = 14.85259036
ECCENTRICITY   = .0020892
INCLINATION    = 82.5018
RA_OF_ASC_NODE = 20.1699
ARG_OF_PERICENTER = 96.8690
MEAN_ANOMALY   = 263.4904

EPHEMERIS_TYPE = 0
CLASSIFICATION_TYPE = U
NORAD_CAT_ID   = 17912
ELEMENT_SET_NO = 999
REV_AT_EPOCH   = 6609
BSTAR          = .74895E-4
MEAN_MOTION_DOT = .669E-5
MEAN_MOTION_DDOT = 0

CCSDS_OMM_VERS = 2.0
CREATION_DATE  = 
ORIGINATOR     = 

OBJECT_NAME    = COSMOS 1844
OBJECT_ID      = 1987-041A
CENTER_NAME    = EARTH
REF_FRAME      = TEME
TIME_SYSTEM    = UTC
MEAN_ELEMENT_THEORY = SGP/SGP4

EPOCH          = 2025-12-11T01:50:48.861024
MEAN_MOTION    = 14.14526081
ECCENTRICITY   = .0030123
INCLINATION    = 70.8979
RA_OF_ASC_NODE = 221.0787
ARG_OF_PERICENTER = 159.7887
MEAN_ANOMALY   = 200.4435

EPHEMERIS_TYPE = 0
CLASSIFICATION_TYPE = U
NORAD_CAT_ID   = 17973
ELEMENT_SET_NO = 999
REV_AT_EPOCH   = 99105
BSTAR          = -.24963E-4
MEAN_MOTION_DOT = -.96E-6
MEAN_MOTION_DDOT = 0

CCSDS_OMM_VERS = 2.0
CREATION_DATE  = 
ORIGINATOR     = 

OBJECT_NAME    = SL-14 R/B
OBJECT_ID      = 1987-055B
CENTER_NAME    = EARTH
REF_FRAME      = TEME
TIME_SYSTEM    = UTC
MEAN_ELEMENT_THEORY = SGP/SGP4

EPOCH          = 2025-12-10T11:58:21.022752
MEAN_MOTION    = 14.85517771
ECCENTRICITY   = .00195215
INCLINATION    = 82.5002
RA_OF_ASC_NODE = 73.1002
ARG_OF_PERICENTER = 311.2065
MEAN_ANOMALY   = 48.7467

EPHEMERIS_TYPE = 0
CLASSIFICATION_TYPE = U
NORAD_CAT_ID   = 18153
ELEMENT_SET_NO = 999
REV_AT_EPOCH   = 5669
BSTAR          = .92719159E-4
MEAN_MOTION_DOT = .827E-5
MEAN_MOTION_DDOT = 0

CCSDS_OMM_VERS = 2.0
CREATION_DATE  = 
ORIGINATOR     = 

OBJECT_NAME    = COSMOS 1867
OBJECT_ID      = 1987-060A
CENTER_NAME    = EARTH
REF_FRAME      = TEME
TIME_SYSTEM    = UTC
MEAN_ELEMENT_THEORY = SGP/SGP4

EPOCH          = 2025-12-10T23:54:17.036064
MEAN_MOTION    = 14.31485663
ECCENTRICITY   = .0013627
INCLINATION    = 65.0093
RA_OF_ASC_NODE = 195.0860
ARG_OF_PERICENTER = 270.9409
MEAN_ANOMALY   = 89.0114

EPHEMERIS_TYPE = 0
CLASSIFICATION_TYPE = U
NORAD_CAT_ID   = 18187
ELEMENT_SET_NO = 999
REV_AT_EPOCH   = 724
BSTAR          = .3656E-4
MEAN_MOTION_DOT = -.3E-7
MEAN_MOTION_DDOT = 0

CCSDS_OMM_VERS = 2.0
CREATION_DATE  = 
ORIGINATOR     = 

OBJECT_NAME    = SL-14 R/B
OBJECT_ID      = 1988-001B
CENTER_NAME    = EARTH
REF_FRAME      = TEME
TIME_SYSTEM    = UTC
MEAN_ELEMENT_THEORY = SGP/SGP4

EPOCH          = 2025-12-11T03:53:09.879360
MEAN_MOTION    = 14.85421172
ECCENTRICITY   = .0018332
INCLINATION    = 82.5132
RA_OF_ASC_NODE = 278.6312
ARG_OF_PERICENTER = 166.1830
MEAN_ANOMALY   = 193.9892

EPHEMERIS_TYPE = 0
CLASSIFICATION_TYPE = U
NORAD_CAT_ID   = 18749
ELEMENT_SET_NO = 999
REV_AT_EPOCH   = 2888
BSTAR          = .91141E-4
MEAN_MOTION_DOT = .811E-5
MEAN_MOTION_DDOT = 0

